{"type": "FeatureCollection", "features": [ {"type": "Feature", "properties": {"norad_id": 36687, "name": "FENGYUN 1C DEB", "group": "fengyun-1c-debris", "lat": -44.96762274781886, "lon": 91.46952553317166, "alt_km": 869.4231409201466, "timestamp": "2025-12-22T14:45:57.691554+00:00", "meta": {"OBJECT_NAME": "FENGYUN 1C DEB", "OBJECT_ID": "1999-025DZH", "EPOCH": "2025-12-17T23:51:08.993376", "MEAN_MOTION": 14.04533718, "ECCENTRICITY": 0.00903258, "INCLINATION": 98.7154, "RA_OF_ASC_NODE": 78.2194, "ARG_OF_PERICENTER": 250.4808, "MEAN_ANOMALY": 108.6587, "EPHEMERIS_TYPE": 0, "CLASSIFICATION_TYPE": "U", "NORAD_CAT_ID": 36687, "ELEMENT_SET_NO": 999, "REV_AT_EPOCH": 62796, "BSTAR": 6.2205267e-05, "MEAN_MOTION_DOT": 6e-07, "MEAN_MOTION_DDOT": 0}, "tle": {"line1": "1 36687U 99025DZH 25351.99385409  .00000060  00000+0  62205-4 0  9992", "line2": "2 36687  98.7154  78.2194 0090325 250.4808 108.6587 14.04533718627964"}}, "geometry": {"type": "Point", "coordinates": [91.46952553317166, -44.96762274781886]}}, {"type": "Feature", "properties": {"norad_id": 36689, "name": "FENGYUN 1C DEB", "group": "fengyun-1c-debris", "lat": 61.27880809193271, "lon": 85.16451092621188, "alt_km": 1179.899021911784, "timestamp": "2025-12-22T14:45:57.691564+00:00", "meta": {"OBJECT_NAME": "FENGYUN 1C DEB", "OBJECT_ID": "1999-025DZK", "EPOCH": "2025-11-28T10:04:14.213280", "MEAN_MOTION": 13.74189275, "ECCENTRICITY": 0.03131537, "INCLINATION": 98.4796, "RA_OF_ASC_NODE": 227.8431, "ARG_OF_PERICENTER": 334.7216, "MEAN_ANOMALY": 23.8887, "EPHEMERIS_TYPE": 0, "CLASSIFICATION_TYPE": "U", "NORAD_CAT_ID": 36689, "ELEMENT_SET_NO": 999, "REV_AT_EPOCH": 58016, "BSTAR": 0.0027905602, "MEAN_MOTION_DOT": 3.71e-05, "MEAN_MOTION_DDOT": 0}, "tle": {"line1": "1 36689U 99025DZK 25332.41960895  .00003710  00000+0  27906-2 0  9990", "line2": "2 36689  98.4796 227.8431 0313153 334.7216  23.8887 13.74189275580169"}}, "geometry": {"type": "Point", "coordinates": [85.16451092621188, 61.27880809193271]}}, {"type": "Feature", "properties": {"norad_id": 36691, "name": "FENGYUN 1C DEB", "group": "fengyun-1c-debris", "lat": 33.15218291052578, "lon": -9.396225661432073, "alt_km": 959.5490090933836, "timestamp": "2025-12-22T14:45:57.691575+00:00", "meta": {"OBJECT_NAME": "FENGYUN 1C DEB", "OBJECT_ID": "1999-025DZM", "EPOCH": "2025-12-08T17:50:07.073952", "MEAN_MOTION": 14.07105067, "ECCENTRICITY": 0.01290803, "INCLINATION": 98.6374, "RA_OF_ASC_NODE": 343.0423, "ARG_OF_PERICENTER": 246.8073, "MEAN_ANOMALY": 111.9457, "EPHEMERIS_TYPE": 0, "CLASSIFICATION_TYPE": "U", "NORAD_CAT_ID": 36691, "ELEMENT_SET_NO": 999, "REV_AT_EPOCH": 59553, "BSTAR": 0.0032098608, "MEAN_MOTION_DOT": 5.753e-05, "MEAN_MOTION_DDOT": 0}, "tle": {"line1": "1 36691U 99025DZM 25342.74313743  .00005753  00000+0  32099-2 0  9992", "line2": "2 36691  98.6374 343.0423 0129080 246.8073 111.9457 14.07105067595539"}}, "geometry": {"type": "Point", "coordinates": [-9.396225661432073, 33.15218291052578]}}, {"type": "Feature", "properties": {"norad_id": 36692, "name": "FENGYUN 1C DEB", "group": "fengyun-1c-debris", "lat": -79.88913716379585, "lon": 2.012875501157502, "alt_km": 906.618483025879, "timestamp": "2025-12-22T14:45:57.691585+00:00", "meta": {"OBJECT_NAME": "FENGYUN 1C DEB", "OBJECT_ID": "1999-025DZN", "EPOCH": "2025-12-19T13:05:58.719264", "MEAN_MOTION": 13.93478487, "ECCENTRICITY": 0.0114701, "INCLINATION": 99.9949, "RA_OF_ASC_NODE": 260.157, "ARG_OF_PERICENTER": 355.4606, "MEAN_ANOMALY": 4.5502, "EPHEMERIS_TYPE": 0, "CLASSIFICATION_TYPE": "U", "NORAD_CAT_ID": 36692, "ELEMENT_SET_NO": 999, "REV_AT_EPOCH": 59900, "BSTAR": 0.000466, "MEAN_MOTION_DOT": 5.93e-06, "MEAN_MOTION_DDOT": 0}, "tle": {"line1": "1 36692U 99025DZN 25353.54581851  .00000593  00000+0  46600-3 0  9991", "line2": "2 36692  99.9949 260.1570 0114701 355.4606   4.5502 13.93478487599004"}}, "geometry": {"type": "Point", "coordinates": [2.012875501157502, -79.88913716379585]}}, {"type": "Feature", "properties": {"norad_id": 36695, "name": "FENGYUN 1C DEB", "group": "fengyun-1c-debris", "lat": 45.644351223009686, "lon": 166.12994640734465, "alt_km": 587.1113807513993, "timestamp": "2025-12-22T14:45:57.691595+00:00", "meta": {"OBJECT_NAME": "FENGYUN 1C DEB", "OBJECT_ID": "1999-025DZR", "EPOCH": "2025-12-19T17:58:26.567904", "MEAN_MOTION": 14.4375753, "ECCENTRICITY": 0.02577644, "INCLINATION": 98.2216, "RA_OF_ASC_NODE": 334.8541, "ARG_OF_PERICENTER": 109.141, "MEAN_ANOMALY": 253.7875, "EPHEMERIS_TYPE": 0, "CLASSIFICATION_TYPE": "U", "NORAD_CAT_ID": 36695, "ELEMENT_SET_NO": 999, "REV_AT_EPOCH": 89669, "BSTAR": 0.00011487263, "MEAN_MOTION_DOT": 5.34e-06, "MEAN_MOTION_DDOT": 0}, "tle": {"line1": "1 36695U 99025DZR 25353.74891861  .00000534  00000+0  11487-3 0  9991", "line2": "2 36695  98.2216 334.8541 0257764 109.1410 253.7875 14.43757530896698"}}, "geometry": {"type": "Point", "coordinates": [166.12994640734465, 45.644351223009686]}}, {"type": "Feature", "properties": {"norad_id": 36696, "name": "FENGYUN 1C DEB", "group": "fengyun-1c-debris", "lat": -40.62022524556104, "lon": 178.27801210545258, "alt_km": 763.9690264724813, "timestamp": "2025-12-22T14:45:57.691605+00:00", "meta": {"OBJECT_NAME": "FENGYUN 1C DEB", "OBJECT_ID": "1999-025DZS", "EPOCH": "2025-12-20T18:21:37.280448", "MEAN_MOTION": 14.39290248, "ECCENTRICITY": 0.0022773, "INCLINATION": 98.991, "RA_OF_ASC_NODE": 4.1437, "ARG_OF_PERICENTER": 304.9139, "MEAN_ANOMALY": 54.9908, "EPHEMERIS_TYPE": 0, "CLASSIFICATION_TYPE": "U", "NORAD_CAT_ID": 36696, "ELEMENT_SET_NO": 999, "REV_AT_EPOCH": 64511, "BSTAR": 0.0012348867, "MEAN_MOTION_DOT": 3.799e-05, "MEAN_MOTION_DDOT": 0}, "tle": {"line1": "1 36696U 99025DZS 25354.76501482  .00003799  00000+0  12349-2 0  9995", "line2": "2 36696  98.9910   4.1437 0022773 304.9139  54.9908 14.39290248645111"}}, "geometry": {"type": "Point", "coordinates": [178.27801210545258, -40.62022524556104]}}, {"type": "Feature", "properties": {"norad_id": 36699, "name": "FENGYUN 1C DEB", "group": "fengyun-1c-debris", "lat": 79.83732631163666, "lon": -66.29264330665949, "alt_km": 738.1816420469895, "timestamp": "2025-12-22T14:45:57.691616+00:00", "meta": {"OBJECT_NAME": "FENGYUN 1C DEB", "OBJECT_ID": "1999-025DZV", "EPOCH": "2025-12-18T19:19:49.130400", "MEAN_MOTION": 14.24300453, "ECCENTRICITY": 0.00948184, "INCLINATION": 98.559, "RA_OF_ASC_NODE": 347.151, "ARG_OF_PERICENTER": 112.6201, "MEAN_ANOMALY": 248.5042, "EPHEMERIS_TYPE": 0, "CLASSIFICATION_TYPE": "U", "NORAD_CAT_ID": 36699, "ELEMENT_SET_NO": 999, "REV_AT_EPOCH": 73413, "BSTAR": 0.00018594934, "MEAN_MOTION_DOT": 4.08e-06, "MEAN_MOTION_DDOT": 0}, "tle": {"line1": "1 36699U 99025DZV 25352.80542975  .00000408  00000+0  18595-3 0  9997", "line2": "2 36699  98.5590 347.1510 0094818 112.6201 248.5042 14.24300453734134"}}, "geometry": {"type": "Point", "coordinates": [-66.29264330665949, 79.83732631163666]}}, {"type": "Feature", "properties": {"norad_id": 36701, "name": "FENGYUN 1C DEB", "group": "fengyun-1c-debris", "lat": -31.489779857932355, "lon": -37.87194647649263, "alt_km": 1017.924873313521, "timestamp": "2025-12-22T14:45:57.691626+00:00", "meta": {"OBJECT_NAME": "FENGYUN 1C DEB", "OBJECT_ID": "1999-025DZX", "EPOCH": "2025-12-20T03:23:43.631808", "MEAN_MOTION": 13.71358174, "ECCENTRICITY": 0.02586535, "INCLINATION": 102.7457, "RA_OF_ASC_NODE": 310.8841, "ARG_OF_PERICENTER": 236.6131, "MEAN_ANOMALY": 121.0013, "EPHEMERIS_TYPE": 0, "CLASSIFICATION_TYPE": "U", "NORAD_CAT_ID": 36701, "ELEMENT_SET_NO": 999, "REV_AT_EPOCH": 61240, "BSTAR": 0.0012262253, "MEAN_MOTION_DOT": 1.326e-05, "MEAN_MOTION_DDOT": 0}, "tle": {"line1": "1 36701U 99025DZX 25354.14147722  .00001326  00000+0  12262-2 0  9995", "line2": "2 36701 102.7457 310.8841 0258653 236.6131 121.0013 13.71358174612402"}}, "geometry": {"type": "Point", "coordinates": [-37.87194647649263, -31.489779857932355]}}, {"type": "Feature", "properties": {"norad_id": 36707, "name": "FENGYUN 1C DEB", "group": "fengyun-1c-debris", "lat": 79.51298790835034, "lon": -13.741922270616813, "alt_km": 791.6941983639244, "timestamp": "2025-12-22T14:45:57.691636+00:00", "meta": {"OBJECT_NAME": "FENGYUN 1C DEB", "OBJECT_ID": "1999-025EAD", "EPOCH": "2025-12-21T21:25:47.185536", "MEAN_MOTION": 14.17337167, "ECCENTRICITY": 0.00496219, "INCLINATION": 98.751, "RA_OF_ASC_NODE": 41.8648, "ARG_OF_PERICENTER": 96.1028, "MEAN_ANOMALY": 264.5804, "EPHEMERIS_TYPE": 0, "CLASSIFICATION_TYPE": "U", "NORAD_CAT_ID": 36707, "ELEMENT_SET_NO": 999, "REV_AT_EPOCH": 64209, "BSTAR": 0.00072069372, "MEAN_MOTION_DOT": 1.432e-05, "MEAN_MOTION_DDOT": 0}, "tle": {"line1": "1 36707U 99025EAD 25355.89290724  .00001432  00000+0  72069-3 0  9995", "line2": "2 36707  98.7510  41.8648 0049621  96.1028 264.5804 14.17337167642094"}}, "geometry": {"type": "Point", "coordinates": [-13.741922270616813, 79.51298790835034]}}, {"type": "Feature", "properties": {"norad_id": 36710, "name": "FENGYUN 1C DEB", "group": "fengyun-1c-debris", "lat": 66.89578161794529, "lon": 33.466465565159574, "alt_km": 713.247615679863, "timestamp": "2025-12-22T14:45:57.691646+00:00", "meta": {"OBJECT_NAME": "FENGYUN 1C DEB", "OBJECT_ID": "1999-025EAG", "EPOCH": "2025-12-15T10:11:57.749280", "MEAN_MOTION": 14.49882943, "ECCENTRICITY": 0.00679739, "INCLINATION": 98.3812, "RA_OF_ASC_NODE": 46.5328, "ARG_OF_PERICENTER": 173.535, "MEAN_ANOMALY": 186.6737, "EPHEMERIS_TYPE": 0, "CLASSIFICATION_TYPE": "U", "NORAD_CAT_ID": 36710, "ELEMENT_SET_NO": 999, "REV_AT_EPOCH": 64992, "BSTAR": 0.00098752348, "MEAN_MOTION_DOT": 3.884e-05, "MEAN_MOTION_DDOT": 0}, "tle": {"line1": "1 36710U 99025EAG 25349.42497395  .00003884  00000+0  98752-3 0  9994", "line2": "2 36710  98.3812  46.5328 0067973 173.5350 186.6737 14.49882943649924"}}, "geometry": {"type": "Point", "coordinates": [33.466465565159574, 66.89578161794529]}}]}